[{"OBJECT_NAME":"STARLINK-5377","OBJECT_ID":"2023-046BB","EPOCH":"2026-03-09T22:00:01.999584","MEAN_MOTION":15.10518743,"ECCENTRICITY":0.0002113,"INCLINATION":42.9998,"RA_OF_ASC_NODE":144.2164,"ARG_OF_PERICENTER":267.4994,"MEAN_ANOMALY":39.3239,"EPHEMERIS_TYPE":0,"CLASSIFICATION_TYPE":"U","NORAD_CAT_ID":56141,"ELEMENT_SET_NO":999,"REV_AT_EPOCH":577,"BSTAR":0.00020853406,"MEAN_MOTION_DOT":3.278e-5,"MEAN_MOTION_DDOT":0},{"OBJECT_NAME":"COSMOS 2251 DEB","OBJECT_ID":"1993-036AUU","EPOCH":"2026-03-05T06:52:33.034944","MEAN_MOTION":15.00530799,"ECCENTRICITY":0.0084949,"INCLINATION":74.0317,"RA_OF_ASC_NODE":43.0245,"ARG_OF_PERICENTER":102.0037,"MEAN_ANOMALY":259.0688,"EPHEMERIS_TYPE":0,"CLASSIFICATION_TYPE":"U","NORAD_CAT_ID":35905,"ELEMENT_SET_NO":999,"REV_AT_EPOCH":89820,"BSTAR":0.00077707,"MEAN_MOTION_DOT":0.00010555,"MEAN_MOTION_DDOT":0}]
